IRIDIUM 36              
1 24967U 97056C   24329.69628509  .00001079  00000+0  35600-3 0  9993
2 24967  86.3961 258.8516 0002217  78.9209 281.2238 14.37244192422848
IRIDIUM 39              
1 25042U 97069D   24329.85292715  .00001622  00000+0  42525-3 0  9994
2 25042  86.3881 298.7470 0015653 269.7474  90.1936 14.48641615419377
IRIDIUM 38              
1 25043U 97069E   24329.72081110  .00001139  00000+0  37235-3 0  9991
2 25043  86.3933 319.2046 0003944  71.0829 289.0796 14.37724282416574
IRIDIUM 42              
1 25077U 97077A   24329.54749165  .00001061  00000+0  35867-3 0  9991
2 25077  86.3942 325.1960 0002951  84.2934 275.8599 14.35989737411825
IRIDIUM 44              
1 25078U 97077B   24329.84423764  .00001278  00000+0  40093-3 0  9996
2 25078  86.3924 307.5321 0002487  42.5216 317.6175 14.39856197414291
IRIDIUM 24              
1 25105U 97082B   24329.59227165  .00000998  00000+0  30016-3 0  9994
2 25105  86.3928 167.0166 0012775  41.5559 318.6610 14.41681448413733
IRIDIUM 51              
1 25262U 98018A   24329.61549242  .00033830  00000+0  12009-2 0  9996
2 25262  86.3913 155.7269 0118572 307.8221  51.2335 15.22376039415727
